ONEWEB-0451             
1 51643U 22012X   24003.54117952 -.00000339  00000+0 -90718-3 0  9993
2 51643  87.9196 183.9397 0001341  98.8200 261.3083 13.17648789 95716
ONEWEB-0452             
1 51644U 22012Y   24003.53959910  .00000069  00000+0  14479-3 0  9999
2 51644  87.9203 183.9700 0001052  92.3374 267.7878 13.17650340 95723
ONEWEB-0455             
1 51645U 22012Z   24003.48094475  .00000382  00000+0  16235-3 0  9990
2 51645  87.5357 164.5372 0017723 157.8866 202.3093 14.22683754 98746
ONEWEB-0456             
1 51646U 22012AA  24003.59315137 -.00000232  00000+0 -70071-3 0  9998
2 51646  87.8885 214.1394 0001825  91.7317 268.4019 13.10368130 92058
ONEWEB-0457             
1 51647U 22012AB  24003.57041357  .00000662  00000+0  18609-2 0  9990
2 51647  87.8898 214.1527 0001197  73.9899 286.1360 13.10373865 92057
ONEWEB-0458             
1 51648U 22012AC  24003.59152177 -.00000430  00000+0 -12692-2 0  9997
2 51648  87.8898 214.1612 0001993 111.0542 249.0798 13.10369228 92013
ONEWEB-0461             
1 51649U 22012AD  24003.56176879  .00000045  00000+0  83055-4 0  9993
2 51649  87.9198 183.9413 0001475  86.0691 274.0609 13.17651246 95946
ONEWEB-0463             
1 51650U 22012AE  24003.54436311  .00000034  00000+0  54838-4 0  9998
2 51650  87.9204 183.9843 0001423  86.9445 273.1850 13.17648894 95721
ONEWEB-0464             
1 51651U 22012AF  24003.58829527 -.00000006  00000+0 -53482-4 0  9993
2 51651  87.8898 214.1510 0001708  98.4572 261.6749 13.10366202 92036
ONEWEB-0468             
1 51652U 22012AG  24003.59479195 -.00000276  00000+0 -82656-3 0  9990
2 51652  87.8897 214.1429 0001404  88.1076 272.0213 13.10365486 92016
ONEWEB-0473             
1 51653U 22012AH  24003.58017895  .00000618  00000+0  17343-2 0  9993
2 51653  87.8899 214.1493 0001404  93.4452 266.6836 13.10369807 92018
ONEWEB-0474             
1 51654U 22012AJ  24003.57205912  .00000685  00000+0  19254-2 0  9999
2 51654  87.8889 214.1634 0001467 101.4540 258.6752 13.10373065 92000
ONEWEB-0475             
1 51655U 22012AK  24003.55543472  .00000075  00000+0  16082-3 0  9994
2 51655  87.9206 183.9610 0001444 111.8569 248.2716 13.17646345 95743
ONEWEB-0490             
1 54113U 22138A   24003.58661686  .00000147  00000+0  33464-3 0  9999
2 54113  87.9202 123.2486 0001737 108.9411 251.1911 13.19726903 58703
ONEWEB-0492             
1 54114U 22138B   24003.38443686  .00000068  00000+0  13847-3 0  9991
2 54114  87.9201 123.2833 0001914 113.6871 246.4463 13.19725436 58685
ONEWEB-0495             
1 54115U 22138C   24003.36232321  .00000086  00000+0  18133-3 0  9995
2 54115  87.9201 123.2988 0001794 120.2442 239.8868 13.19724791 58667
ONEWEB-0497             
1 54116U 22138D   24003.37495579  .00000035  00000+0  55681-4 0  9997
2 54116  87.9202 123.2912 0001699 109.0241 251.1076 13.19726855 58652
ONEWEB-0499             
1 54117U 22138E   24003.35758370  .00000085  00000+0  17944-3 0  9991
2 54117  87.9198 123.2888 0001104 118.3931 241.7313 13.19724411 58665
ONEWEB-0500             
1 54118U 22138F   24003.36076027  .00000082  00000+0  17204-3 0  9991
2 54118  87.9204 123.2890 0001733 105.2088 254.9236 13.19724707 58672
ONEWEB-0501             
1 54119U 22138G   24003.39075441 -.00000034  00000+0 -11614-3 0  9992
2 54119  87.9204 123.2840 0001864 125.4383 234.6924 13.19724923 58652
ONEWEB-0502             
1 54120U 22138H   24003.37653555  .00000048  00000+0  87088-4 0  9992
2 54120  87.9202 123.2781 0001615 118.3579 241.7716 13.19726300 58679
ONEWEB-0503             
1 54121U 22138J   24003.36548159  .00000061  00000+0  12092-3 0  9992
2 54121  87.9201 123.2880 0001229  96.9348 263.1924 13.19725354 58661
ONEWEB-0504             
1 54122U 22138K   24003.35284923  .00000124  00000+0  27651-3 0  9995
2 54122  87.9204 123.2926 0001441 120.0505 240.0771 13.19724707 58672
ONEWEB-0505             
1 54123U 22138L   24003.34968479  .00000265  00000+0  62928-3 0  9992
2 54123  87.9209 123.2894 0001793 131.4246 228.7041 13.19726792 58657
ONEWEB-0506             
1 54124U 22138M   24003.40024237 -.00000019  00000+0 -79973-4 0  9993
2 54124  87.9202 123.2773 0001674 116.2942 243.8363 13.19728390 58650
ONEWEB-0507             
1 54125U 22138N   24003.34494300  .00000145  00000+0  32992-3 0  9996
2 54125  87.9213 123.2953 0001799 115.7515 244.3803 13.19725058 58698
ONEWEB-0508             
1 54126U 22138P   24003.34178451 -.00000131  00000+0 -35913-3 0  9996
2 54126  87.9202 123.2941 0001895 126.0100 234.1209 13.19725382 58671
ONEWEB-0509             
1 54127U 22138Q   24003.39233700 -.00000554  00000+0 -14164-2 0  9994
2 54127  87.9200 123.2818 0001713 106.9299 253.2021 13.19729239 58655
ONEWEB-0510             
1 54128U 22138R   24003.30742840  .00000031  00000+0  44325-4 0  9998
2 54128  87.9236  92.7578 0002180 106.5504 253.5869 13.20773148 61020
ONEWEB-0511             
1 54129U 22138S   24003.38917247  .00000016  00000+0  64805-5 0  9991
2 54129  87.9201 123.2845 0001158 110.8838 249.2419 13.19725350 58683
ONEWEB-0512             
1 54130U 22138T   24003.38127990  .00000014  00000+0  27967-5 0  9997
2 54130  87.9210 123.2888 0001697 126.2630 233.8659 13.19725899 58651
ONEWEB-0513             
1 54131U 22138U   24003.35205143  .00000019  00000+0  14242-4 0  9998
2 54131  87.9199 123.2932 0001360 132.2877 227.8371 13.19723647 58535
ONEWEB-0514             
1 54132U 22138V   24003.39706922  .00000013  00000+0 -76382-6 0  9994
2 54132  87.9204 123.2863 0001588 107.4587 252.6719 13.19724106 58678
ONEWEB-0515             
1 54133U 22138W   24003.59783235  .00000140  00000+0  31116-3 0  9992
2 54133  87.9205  92.6867 0003288  96.2046 263.9462 13.20769248 61084
ONEWEB-0516             
1 54134U 22138X   24003.37180201  .00000081  00000+0  17086-3 0  9997
2 54134  87.9210 123.2911 0001703 107.4555 252.6764 13.19725031 58673
ONEWEB-0517             
1 54135U 22138Y   24003.35126511  .00000136  00000+0  30839-3 0  9992
2 54135  87.9202 123.2918 0001450 116.3984 243.7298 13.19724692 58671
ONEWEB-0518             
1 54136U 22138Z   24003.37022250  .00000058  00000+0  11164-3 0  9993
2 54136  87.9210 123.2910 0001416 106.6352 253.4936 13.19726361 58678
ONEWEB-0519             
1 54137U 22138AA  24003.39548406 -.00000130  00000+0 -35819-3 0  9998
2 54137  87.9202 123.2804 0001429 124.4296 235.6972 13.19726350 58682
ONEWEB-0520             
1 54138U 22138AB  24003.35442442  .00000072  00000+0  14851-3 0  9994
2 54138  87.9201 123.2906 0001675 118.4487 241.6814 13.19725479 58664
ONEWEB-0521             
1 54139U 22138AC  24003.38759683  .00000029  00000+0  38938-4 0  9991
2 54139  87.9201 123.2796 0001316  98.2779 261.8503 13.19725051 58613
ONEWEB-0522             
1 54140U 22138AD  24003.36705634 -.00000253  00000+0 -66364-3 0  9992
2 54140  87.9201 123.2861 0001679 107.9495 252.1821 13.19725439 58653
ONEWEB-0523             
1 54141U 22138AE  24003.28220090  .00000119  00000+0  26007-3 0  9991
2 54141  87.9198  92.7762 0002026  73.5884 286.5472 13.20773301 61049
ONEWEB-0524             
1 54142U 22138AF  24003.27113101 -.00000166  00000+0 -44141-3 0  9998
2 54142  87.9197  92.7827 0002895  93.7191 266.4273 13.20771456 61045
ONEWEB-0525             
1 54143U 22138AG  24003.38600845  .00000044  00000+0  78245-4 0  9993
2 54143  87.9203 123.2866 0001674 118.8179 241.3122 13.19727149 58674
ONEWEB-0526             
1 54144U 22138AH  24003.34339205  .00000093  00000+0  20060-3 0  9994
2 54144  87.9204 123.2932 0001746 109.2240 250.9082 13.19723200 58645
ONEWEB-0529             
1 54145U 22138AJ  24003.34653589 -.00000024  00000+0 -91425-4 0  9999
2 54145  87.9212 123.2952 0001825 118.0697 242.0621 13.19722079 58665
ONEWEB-0531             
1 54146U 22138AK  24003.25694105  .00000211  00000+0  48665-3 0  9992
2 54146  87.9199  92.7748 0002495  80.3911 279.7504 13.20771963 61048
ONEWEB-0535             
1 54147U 22138AL  24003.37969146 -.00000017  00000+0 -74755-4 0  9992
2 54147  87.9200 123.2850 0001527  90.8129 269.3179 13.19724599 58688
ONEWEB-0536             
1 54148U 22138AM  24003.24431070  .00000122  00000+0  26897-3 0  9997
2 54148  87.9197  92.8281 0001908  67.7436 292.3899 13.20778774 61034
GSLV R/B                
1 54149U 22138AN  24003.58352795  .00002200  00000+0  22623-3 0  9993
2 54149  87.3798  72.1832 0025710 146.2840 214.0029 14.89615514 65126
ONEWEB-0527             
1 54642U 22166A   24003.53144397  .00000133  00000+0  28990-3 0  9990
2 54642  87.9212  62.2928 0001992  99.6302 260.5057 13.21827577 53210
ONEWEB-0528             
1 54643U 22166B   24003.53776383 -.00000163  00000+0 -42537-3 0  9995
2 54643  87.9235  62.2700 0001856 104.0019 256.1321 13.21826577 53224
ONEWEB-0539             
1 54644U 22166C   24003.57402258 -.00000145  00000+0 -38351-3 0  9996
2 54644  87.9236  62.2630 0001660 102.3412 257.7907 13.21824473 53229
ONEWEB-0540             
1 54645U 22166D   24003.56850484  .00000084  00000+0  17155-3 0  9993
2 54645  87.9238  62.2913 0001569 106.5821 253.5486 13.21827264 53210
ONEWEB-0542             
1 54646U 22166E   24003.20500492 -.00000015  00000+0 -68529-4 0  9994
2 54646  87.9237  62.3370 0001299  92.7181 267.4102 13.21824732 53174
ONEWEB-0545             
1 54647U 22166F   24003.55037307 -.00000025  00000+0 -93016-4 0  9993
2 54647  87.9225  62.3053 0001330 109.5563 250.5714 13.21826197 53187
ONEWEB-0580             
1 54648U 22166G   24003.59925715 -.00000002  00000+0 -37148-4 0  9996
2 54648  87.9235  62.2518 0001227  89.4160 270.7114 13.21825962 53231
ONEWEB-0582             
1 54649U 22166H   24003.56614133  .00000091  00000+0  18982-3 0  9993
2 54649  87.9234  62.3005 0001685 110.0047 250.1269 13.21825895 53201
ONEWEB-0583             
1 54650U 22166J   24003.57717752  .00000060  00000+0  11493-3 0  9993
2 54650  87.9227  62.3021 0002234 102.5446 257.5938 13.21826430 53214
